1 45141U 20008L   23325.79721511  .00000391  00000-0  10838-2 0  9998
2 45141  87.8927 222.6700 0001462  69.8545 290.2740 13.10371888185409
1 45141U 20008L   23326.10264511  .00000475  00000-0  13255-2 0  9995
2 45141  87.8927 222.6095 0001463  70.4112 289.7173 13.10372742186308
1 45141U 20008L   23326.25536028  .00000526  00000-0  14709-2 0  9998
2 45141  87.8925 222.5793 0001464  70.5984 289.5302 13.10372804185466
1 45141U 20008L   23326.78986343  .00000562  00000-0  15746-2 0  9997
2 45141  87.8926 222.4736 0001455  71.1030 289.0254 13.10373274185533
1 45141U 20008L   23327.24800878  .00000686  00000-0  19282-2 0  9993
2 45141  87.8926 222.3829 0001460  71.9993 288.1293 13.10373332185591
1 45141U 20008L   23327.24800878  .00000686  00000-0  19282-2 0  9993
2 45141  87.8926 222.3829 0001460  71.9993 288.1293 13.10373332186457
1 45141U 20008L   23327.78251119  .00000659  00000-0  18520-2 0  9994
2 45141  87.8927 222.2770 0001455  71.5753 288.5533 13.10374201185665
1 45141U 20008L   23328.24065558  .00000711  00000-0  19998-2 0  9995
2 45141  87.8927 222.1860 0001452  72.8755 287.2531 13.10374852185720
1 45141U 20008L   23328.77515721  .00000727  00000-0  20459-2 0  9996
2 45141  87.8928 222.0801 0001457  72.3332 287.7955 13.10375352185794
1 45141U 20008L   23328.77515721  .00000727  00000-0  20459-2 0  9996
2 45141  87.8928 222.0801 0001457  72.3332 287.7955 13.10375352186650
1 45141U 20008L   23329.61508789  .00000601  00000-0  16861-2 0  9999
2 45141  87.8929 221.9138 0001448  70.7595 289.3688 13.10376309185906
1 45141U 20008L   23329.76780228  .00000665  00000-0  18672-2 0  9997
2 45141  87.8929 221.8834 0001444  70.9316 289.1967 13.10376282185927
1 45141U 20008L   23330.07323149  .00000603  00000-0  16906-2 0  9998
2 45141  87.8930 221.8230 0001434  71.0538 289.0745 13.10376380186828
1 45141U 20008L   23330.60773149  .00000482  00000-0  13439-2 0  9999
2 45141  87.8931 221.7172 0001427  71.2053 288.9229 13.10377396186035
1 45141U 20008L   23330.76044629  .00000702  00000-0  19758-2 0  9995
2 45141  87.8932 221.6870 0002023  87.2569 272.8790 13.10376370186050
1 45141U 20008L   23331.14223155  .00000478  00000-0  13327-2 0  9997
2 45141  87.8931 221.6113 0001424  71.5605 288.5677 13.10377392186963
1 45141U 20008L   23331.21858794  .00000238  00000-0  64497-3 0  9997
2 45141  87.8933 221.5962 0001319  79.7414 280.3862 13.10378903186119
1 45141U 20008L   23331.75308844  .00000461  00000-0  12840-2 0  9994
2 45141  87.8932 221.4905 0001850  77.4910 282.6424 13.10377898186188
1 45141U 20008L   23332.21123377  .00000555  00000-0  15523-2 0  9997
2 45141  87.8930 221.4000 0001602  69.0038 291.1260 13.10373770186240
1 45141U 20008L   23332.21123377  .00000555  00000-0  15523-2 0  9997
2 45141  87.8930 221.4000 0001602  69.0038 291.1260 13.10373770187106
1 45141U 20008L   23332.74573370 -.00000456  00000-0 -13417-2 0  9999
2 45141  87.8931 221.2944 0001606  82.2252 277.9058 13.10377319186313
1 45141U 20008L   23333.12753549  .00008937  00000-0  25558-1 0  9998
2 45141  87.8932 221.2186 0001839  71.8367 288.2961 13.10328862187229
1 45141U 20008L   23333.20387825 -.00000314  00000-0 -93624-3 0  9991
2 45141  87.8933 221.2035 0001384  72.3234 287.8044 13.10374809186371
1 45141U 20008L   23333.20387825 -.00000314  00000-0 -93624-3 0  9991
2 45141  87.8933 221.2035 0001384  72.3234 287.8044 13.10374809187237
1 45141U 20008L   23334.73102571 -.00000269  00000-0 -80587-3 0  9996
2 45141  87.8933 220.9013 0001354  74.2750 285.8526 13.10371952187431
1 45141U 20008L   23335.72367268 -.00000423  00000-0 -12476-2 0  9995
2 45141  87.8932 220.7048 0001365  75.0802 285.0477 13.10371491186709
1 45141U 20008L   23336.18181780 -.00000493  00000-0 -14494-2 0  9998
2 45141  87.8931 220.6142 0001352  75.5822 284.5456 13.10371129186760
1 45141U 20008L   23336.18181780 -.00000493  00000-0 -14494-2 0  9998
2 45141  87.8931 220.6142 0001352  75.5822 284.5456 13.10371129187626
1 45141U 20008L   23336.71632059 -.00000366  00000-0 -10857-2 0  9995
2 45141  87.8929 220.5084 0001396  80.9462 279.1823 13.10370015186838
1 45141U 20008L   23337.25082467  .00000090  00000-0  22169-3 0  9999
2 45141  87.8929 220.4027 0001474  75.6938 284.4353 13.10366989186900
1 45141U 20008L   23337.25082467  .00000090  00000-0  22169-3 0  9999
2 45141  87.8929 220.4027 0001474  75.6938 284.4353 13.10366989187765
1 45141U 20008L   23338.62526229 -.00000589  00000-0 -17241-2 0  9999
2 45141  87.8925 220.1304 0001327  79.1507 280.9770 13.10368940187082
1 45141U 20008L   23338.62526229 -.00000589  00000-0 -17241-2 0  9999
2 45141  87.8925 220.1304 0001327  79.1507 280.9770 13.10368940187947
1 45141U 20008L   23339.23612475 -.00000656  00000-0 -19170-2 0  9994
2 45141  87.8922 220.0095 0001345  79.6308 280.4971 13.10368676187162
1 45141U 20008L   23340.15242331 -.00000372  00000-0 -11034-2 0  9993
2 45141  87.8911 219.8270 0002270  57.5194 302.6153 13.10367340188142
1 45141U 20008L   23340.61056418 -.00000723  00000-0 -21082-2 0  9997
2 45141  87.8896 219.7385 0001381  94.2773 265.8512 13.10370432187349
1 45141U 20008L   23341.22143191  .00000625  00000-0  17555-2 0  9999
2 45141  87.8921 219.6153 0001734  75.0253 285.1066 13.10363475188284
1 45141U 20008L   23341.60322092 -.00000722  00000-0 -21044-2 0  9998
2 45141  87.8921 219.5397 0001866  69.7968 290.3359 13.10370199187476
1 45141U 20008L   23342.13772483 -.00003224  00000-0 -92735-2 0  9995
2 45141  87.8919 219.4341 0001666  84.8061 275.3257 13.10383602188408
1 45141U 20008L   23342.21408029 -.00005940  00000-0 -17057-1 0  9996
2 45141  87.8917 219.4191 0001496  77.2534 282.8761 13.10396734187559
1 45141U 20008L   23342.21408029 -.00005940  00000-0 -17057-1 0  9996
2 45141  87.8917 219.4191 0001496  77.2534 282.8761 13.10396734188415
1 45141U 20008L   23343.13037874  .00000105  00000-0  26419-3 0  9994
2 45141  87.8911 219.2382 0001367  80.1157 280.0125 13.10367668188531
1 45141U 20008L   23343.20673703  .00000078  00000-0  18747-3 0  9993
2 45141  87.8910 219.2231 0001372  78.4611 281.6671 13.10367372187684
1 45141U 20008L   23344.12303126  .00000367  00000-0  10162-2 0  9997
2 45141  87.8906 219.0419 0001293  82.2103 277.9171 13.10368262187802
1 45141U 20008L   23344.73389442  .00000548  00000-0  15333-2 0  9995
2 45141  87.8905 218.9208 0001353  79.6361 280.4919 13.10368545187889
1 45141U 20008L   23344.73389442  .00000548  00000-0  15333-2 0  9995
2 45141  87.8905 218.9208 0001353  79.6361 280.4919 13.10368545188745
1 45141U 20008L   23345.57382952  .00000738  00000-0  20783-2 0  9993
2 45141  87.8906 218.7544 0001357  81.6748 278.4533 13.10369947187995
1 45141U 20008L   23345.72654428  .00000771  00000-0  21719-2 0  9997
2 45141  87.8908 218.7238 0001357  84.0671 276.0611 13.10370843188011
1 45141U 20008L   23346.10833282  .00000774  00000-0  21807-2 0  9998
2 45141  87.8908 218.6481 0001356  84.7028 275.4254 13.10371111188927
1 45141U 20008L   23346.56647858  .00000787  00000-0  22185-2 0  9994
2 45141  87.8909 218.5574 0001355  84.7906 275.3376 13.10371683188124
1 45141U 20008L   23346.71919366  .00000744  00000-0  20955-2 0  9993
2 45141  87.8909 218.5271 0001349  85.0920 275.0361 13.10372122188143
1 45141U 20008L   23347.17733875  .00000749  00000-0  21090-2 0  9999
2 45141  87.8909 218.4363 0001343  84.3942 275.7339 13.10372853189069
1 45141U 20008L   23347.55912623  .00000690  00000-0  19396-2 0  9992
2 45141  87.8910 218.3606 0001345  84.6914 275.4366 13.10373378188254
1 45141U 20008L   23347.71184106  .00000687  00000-0  19318-2 0  9997
2 45141  87.8910 218.3304 0001353  83.8642 276.2640 13.10373668188275
1 45141U 20008L   23348.55177268  .00000591  00000-0  16579-2 0  9991
2 45141  87.8910 218.1640 0001350  83.4291 276.6990 13.10374381188386
1 45141U 20008L   23348.70448742  .00000594  00000-0  16665-2 0  9995
2 45141  87.8910 218.1337 0001345  83.4169 276.7111 13.10374330189265
1 45141U 20008L   23349.62077478  .00000434  00000-0  12073-2 0  9993
2 45141  87.8909 217.9521 0001364  82.9992 277.1290 13.10375526188523
1 45141U 20008L   23349.69713222  .00000434  00000-0  12082-2 0  9994
2 45141  87.8910 217.9371 0001368  83.5185 276.6098 13.10375231188537
1 45141U 20008L   23350.15527522  .00000425  00000-0  11812-2 0  9993
2 45141  87.8909 217.8463 0001368  84.2885 275.8398 13.10375846189459
1 45141U 20008L   23350.61341865  .00000223  00000-0  60121-3 0  9992
2 45141  87.8909 217.7556 0001376  86.0099 274.1186 13.10376273188650
1 45141U 20008L   23350.68977540  .00000327  00000-0  90157-3 0  9991
2 45141  87.8910 217.7404 0001384  86.7099 273.4187 13.10376350188660
1 45141U 20008L   23351.14793324  .00010062  00000-0  28775-1 0  9991
2 45141  87.8910 217.6495 0001622  95.7099 264.4213 13.10328263189586
1 45141U 20008L   23351.60605354 -.00005906  00000-0 -16958-1 0  9990
2 45141  87.8908 217.5587 0001405  80.1609 279.9677 13.10405588188780
1 45141U 20008L   23351.68241904  .00000081  00000-0  19663-3 0  9990
2 45141  87.8909 217.5435 0001369  87.1307 272.9977 13.10376173188798
1 45141U 20008L   23351.68241904  .00000081  00000-0  19663-3 0  9990
2 45141  87.8909 217.5435 0001369  87.1307 272.9977 13.10376173189654
1 45141U 20008L   23352.14056151 -.00000034  00000-0 -13370-3 0  9999
2 45141  87.8909 217.4529 0001360  89.8445 270.2838 13.10376892188856
1 45141U 20008L   23352.67506289  .00000694  00000-0  19522-2 0  9993
2 45141  87.8908 217.3474 0001793  99.1977 260.9353 13.10371564188924
1 45141U 20008L   23353.13320478 -.00000227  00000-0 -68756-3 0  9997
2 45141  87.8907 217.2565 0001355  94.0750 266.0532 13.10376398189848
1 45141U 20008L   23353.59134828 -.00000331  00000-0 -98379-3 0  9999
2 45141  87.8906 217.1654 0001373  81.4426 278.6857 13.10376501189042
1 45141U 20008L   23354.12584925 -.00000452  00000-0 -13316-2 0  9997
2 45141  87.8905 217.0596 0001357  83.9439 276.1843 13.10375667189116
1 45141U 20008L   23354.66035048 -.00000533  00000-0 -15639-2 0  9993
2 45141  87.8902 216.9533 0001364  77.6474 282.4806 13.10375099189184
